STARLINK-36908          
1 67945U 26037P   26071.91668981 -.00014848  00000+0 -68090-4 0  9996
2 67945  42.9985 178.6607 0001852 275.0059  93.2166 15.82018029  3713
STARLINK-36909          
1 67946U 26037Q   26071.91668981 -.00040974  00000+0 -19282-3 0  9994
2 67946  42.9983 178.6508 0001677 270.5044 101.9823 15.82032083  3714
STARLINK-36920          
1 67947U 26037R   26071.91668981  .00059509  00000+0  28373-3 0  9998
2 67947  42.9985 178.6393 0001798 280.4794  96.2899 15.81975290  3719
STARLINK-36873          
1 67948U 26037S   26071.91668981 -.00018622  00000+0 -86068-4 0  9998
2 67948  42.9986 178.6283 0001801 257.0025 124.0343 15.82021331  3714
STARLINK-36863          
1 67949U 26037T   26071.91668981 -.00048978  00000+0 -23112-3 0  9996
2 67949  42.9985 178.6184 0001703 291.5914  93.7132 15.82038985  3716
STARLINK-36887          
1 67950U 26037U   26071.91668981  .00016932  00000+0  82855-4 0  9991
2 67950  42.9984 178.6073 0001696 287.0151 102.5663 15.81996916  3712
STARLINK-36897          
1 67951U 26037V   26071.91668981  .00016973  00000+0  83050-4 0  9995
2 67951  42.9988 178.5967 0001645 256.3916 137.4635 15.81997374  3715
STARLINK-36381          
1 67952U 26037W   26071.91668981  .00058925  00000+0  28095-3 0  9996
2 67952  42.9990 178.5752 0001926 290.2669 112.1346 15.81977850  3711
STARLINK-36824          
1 67953U 26037X   26071.91668981 -.00008042  00000+0 -35714-4 0  9991
2 67953  42.9985 178.5861 0001859 243.8851 154.2490 15.82001213  3718
STARLINK-36869          
1 67954U 26037Y   26071.91668981  .00037954  00000+0  18215-3 0  9990
2 67954  42.9988 178.5639 0002035 262.6520 144.0177 15.81995529  3714
STARLINK-36872          
1 67955U 26037Z   26071.91668981 -.00021070  00000+0 -97721-4 0  9995
2 67955  42.9988 178.5418 0001921 286.0672 129.1476 15.82025406  3716
STARLINK-36918          
1 67956U 26037AA  26071.91668981  .00033101  00000+0  15932-3 0  9995
2 67956  42.9989 178.5313 0001576 286.5072 132.9823 15.81989517  3716
