CCSDS_OMM_VERS = 2.0
CREATION_DATE  = 
ORIGINATOR     = 

OBJECT_NAME    = STARLINK-36908
OBJECT_ID      = 2026-037P
CENTER_NAME    = EARTH
REF_FRAME      = TEME
TIME_SYSTEM    = UTC
MEAN_ELEMENT_THEORY = SGP/SGP4

EPOCH          = 2026-03-12T22:00:01.999584
MEAN_MOTION    = 15.82018029
ECCENTRICITY   = .00018522
INCLINATION    = 42.9985
RA_OF_ASC_NODE = 178.6607
ARG_OF_PERICENTER = 275.0059
MEAN_ANOMALY   = 93.2166

EPHEMERIS_TYPE = 0
CLASSIFICATION_TYPE = U
NORAD_CAT_ID   = 67945
ELEMENT_SET_NO = 999
REV_AT_EPOCH   = 371
BSTAR          = -.68089752E-4
MEAN_MOTION_DOT = -.14848E-3
MEAN_MOTION_DDOT = 0

CCSDS_OMM_VERS = 2.0
CREATION_DATE  = 
ORIGINATOR     = 

OBJECT_NAME    = STARLINK-36909
OBJECT_ID      = 2026-037Q
CENTER_NAME    = EARTH
REF_FRAME      = TEME
TIME_SYSTEM    = UTC
MEAN_ELEMENT_THEORY = SGP/SGP4

EPOCH          = 2026-03-12T22:00:01.999584
MEAN_MOTION    = 15.82032083
ECCENTRICITY   = .00016772
INCLINATION    = 42.9983
RA_OF_ASC_NODE = 178.6508
ARG_OF_PERICENTER = 270.5044
MEAN_ANOMALY   = 101.9823

EPHEMERIS_TYPE = 0
CLASSIFICATION_TYPE = U
NORAD_CAT_ID   = 67946
ELEMENT_SET_NO = 999
REV_AT_EPOCH   = 371
BSTAR          = -.19282255E-3
MEAN_MOTION_DOT = -.40974E-3
MEAN_MOTION_DDOT = 0

CCSDS_OMM_VERS = 2.0
CREATION_DATE  = 
ORIGINATOR     = 

OBJECT_NAME    = STARLINK-36920
OBJECT_ID      = 2026-037R
CENTER_NAME    = EARTH
REF_FRAME      = TEME
TIME_SYSTEM    = UTC
MEAN_ELEMENT_THEORY = SGP/SGP4

EPOCH          = 2026-03-12T22:00:01.999584
MEAN_MOTION    = 15.81975290
ECCENTRICITY   = .00017989
INCLINATION    = 42.9985
RA_OF_ASC_NODE = 178.6393
ARG_OF_PERICENTER = 280.4794
MEAN_ANOMALY   = 96.2899

EPHEMERIS_TYPE = 0
CLASSIFICATION_TYPE = U
NORAD_CAT_ID   = 67947
ELEMENT_SET_NO = 999
REV_AT_EPOCH   = 371
BSTAR          = .28373031E-3
MEAN_MOTION_DOT = .59509E-3
MEAN_MOTION_DDOT = 0

CCSDS_OMM_VERS = 2.0
CREATION_DATE  = 
ORIGINATOR     = 

OBJECT_NAME    = STARLINK-36873
OBJECT_ID      = 2026-037S
CENTER_NAME    = EARTH
REF_FRAME      = TEME
TIME_SYSTEM    = UTC
MEAN_ELEMENT_THEORY = SGP/SGP4

EPOCH          = 2026-03-12T22:00:01.999584
MEAN_MOTION    = 15.82021331
ECCENTRICITY   = .0001801
INCLINATION    = 42.9986
RA_OF_ASC_NODE = 178.6283
ARG_OF_PERICENTER = 257.0025
MEAN_ANOMALY   = 124.0343

EPHEMERIS_TYPE = 0
CLASSIFICATION_TYPE = U
NORAD_CAT_ID   = 67948
ELEMENT_SET_NO = 999
REV_AT_EPOCH   = 371
BSTAR          = -.86067976E-4
MEAN_MOTION_DOT = -.18622E-3
MEAN_MOTION_DDOT = 0

CCSDS_OMM_VERS = 2.0
CREATION_DATE  = 
ORIGINATOR     = 

OBJECT_NAME    = STARLINK-36863
OBJECT_ID      = 2026-037T
CENTER_NAME    = EARTH
REF_FRAME      = TEME
TIME_SYSTEM    = UTC
MEAN_ELEMENT_THEORY = SGP/SGP4

EPOCH          = 2026-03-12T22:00:01.999584
MEAN_MOTION    = 15.82038985
ECCENTRICITY   = .00017034
INCLINATION    = 42.9985
RA_OF_ASC_NODE = 178.6184
ARG_OF_PERICENTER = 291.5914
MEAN_ANOMALY   = 93.7132

EPHEMERIS_TYPE = 0
CLASSIFICATION_TYPE = U
NORAD_CAT_ID   = 67949
ELEMENT_SET_NO = 999
REV_AT_EPOCH   = 371
BSTAR          = -.23112367E-3
MEAN_MOTION_DOT = -.48978E-3
MEAN_MOTION_DDOT = 0

CCSDS_OMM_VERS = 2.0
CREATION_DATE  = 
ORIGINATOR     = 

OBJECT_NAME    = STARLINK-36887
OBJECT_ID      = 2026-037U
CENTER_NAME    = EARTH
REF_FRAME      = TEME
TIME_SYSTEM    = UTC
MEAN_ELEMENT_THEORY = SGP/SGP4

EPOCH          = 2026-03-12T22:00:01.999584
MEAN_MOTION    = 15.81996916
ECCENTRICITY   = .0001696
INCLINATION    = 42.9984
RA_OF_ASC_NODE = 178.6073
ARG_OF_PERICENTER = 287.0151
MEAN_ANOMALY   = 102.5663

EPHEMERIS_TYPE = 0
CLASSIFICATION_TYPE = U
NORAD_CAT_ID   = 67950
ELEMENT_SET_NO = 999
REV_AT_EPOCH   = 371
BSTAR          = .82854929E-4
MEAN_MOTION_DOT = .16932E-3
MEAN_MOTION_DDOT = 0

CCSDS_OMM_VERS = 2.0
CREATION_DATE  = 
ORIGINATOR     = 

OBJECT_NAME    = STARLINK-36897
OBJECT_ID      = 2026-037V
CENTER_NAME    = EARTH
REF_FRAME      = TEME
TIME_SYSTEM    = UTC
MEAN_ELEMENT_THEORY = SGP/SGP4

EPOCH          = 2026-03-12T22:00:01.999584
MEAN_MOTION    = 15.81997374
ECCENTRICITY   = .00016452
INCLINATION    = 42.9988
RA_OF_ASC_NODE = 178.5967
ARG_OF_PERICENTER = 256.3916
MEAN_ANOMALY   = 137.4635

EPHEMERIS_TYPE = 0
CLASSIFICATION_TYPE = U
NORAD_CAT_ID   = 67951
ELEMENT_SET_NO = 999
REV_AT_EPOCH   = 371
BSTAR          = .83049588E-4
MEAN_MOTION_DOT = .16973E-3
MEAN_MOTION_DDOT = 0

CCSDS_OMM_VERS = 2.0
CREATION_DATE  = 
ORIGINATOR     = 

OBJECT_NAME    = STARLINK-36381
OBJECT_ID      = 2026-037W
CENTER_NAME    = EARTH
REF_FRAME      = TEME
TIME_SYSTEM    = UTC
MEAN_ELEMENT_THEORY = SGP/SGP4

EPOCH          = 2026-03-12T22:00:01.999584
MEAN_MOTION    = 15.81977850
ECCENTRICITY   = .00019261
INCLINATION    = 42.9990
RA_OF_ASC_NODE = 178.5752
ARG_OF_PERICENTER = 290.2669
MEAN_ANOMALY   = 112.1346

EPHEMERIS_TYPE = 0
CLASSIFICATION_TYPE = U
NORAD_CAT_ID   = 67952
ELEMENT_SET_NO = 999
REV_AT_EPOCH   = 371
BSTAR          = .28095444E-3
MEAN_MOTION_DOT = .58925E-3
MEAN_MOTION_DDOT = 0

CCSDS_OMM_VERS = 2.0
CREATION_DATE  = 
ORIGINATOR     = 

OBJECT_NAME    = STARLINK-36824
OBJECT_ID      = 2026-037X
CENTER_NAME    = EARTH
REF_FRAME      = TEME
TIME_SYSTEM    = UTC
MEAN_ELEMENT_THEORY = SGP/SGP4

EPOCH          = 2026-03-12T22:00:01.999584
MEAN_MOTION    = 15.82001213
ECCENTRICITY   = .00018597
INCLINATION    = 42.9985
RA_OF_ASC_NODE = 178.5861
ARG_OF_PERICENTER = 243.8851
MEAN_ANOMALY   = 154.2490

EPHEMERIS_TYPE = 0
CLASSIFICATION_TYPE = U
NORAD_CAT_ID   = 67953
ELEMENT_SET_NO = 999
REV_AT_EPOCH   = 371
BSTAR          = -.35713859E-4
MEAN_MOTION_DOT = -.8042E-4
MEAN_MOTION_DDOT = 0

CCSDS_OMM_VERS = 2.0
CREATION_DATE  = 
ORIGINATOR     = 

OBJECT_NAME    = STARLINK-36869
OBJECT_ID      = 2026-037Y
CENTER_NAME    = EARTH
REF_FRAME      = TEME
TIME_SYSTEM    = UTC
MEAN_ELEMENT_THEORY = SGP/SGP4

EPOCH          = 2026-03-12T22:00:01.999584
MEAN_MOTION    = 15.81995529
ECCENTRICITY   = .00020359
INCLINATION    = 42.9988
RA_OF_ASC_NODE = 178.5639
ARG_OF_PERICENTER = 262.6520
MEAN_ANOMALY   = 144.0177

EPHEMERIS_TYPE = 0
CLASSIFICATION_TYPE = U
NORAD_CAT_ID   = 67954
ELEMENT_SET_NO = 999
REV_AT_EPOCH   = 371
BSTAR          = .1821497E-3
MEAN_MOTION_DOT = .37954E-3
MEAN_MOTION_DDOT = 0

CCSDS_OMM_VERS = 2.0
CREATION_DATE  = 
ORIGINATOR     = 

OBJECT_NAME    = STARLINK-36872
OBJECT_ID      = 2026-037Z
CENTER_NAME    = EARTH
REF_FRAME      = TEME
TIME_SYSTEM    = UTC
MEAN_ELEMENT_THEORY = SGP/SGP4

EPOCH          = 2026-03-12T22:00:01.999584
MEAN_MOTION    = 15.82025406
ECCENTRICITY   = .00019216
INCLINATION    = 42.9988
RA_OF_ASC_NODE = 178.5418
ARG_OF_PERICENTER = 286.0672
MEAN_ANOMALY   = 129.1476

EPHEMERIS_TYPE = 0
CLASSIFICATION_TYPE = U
NORAD_CAT_ID   = 67955
ELEMENT_SET_NO = 999
REV_AT_EPOCH   = 371
BSTAR          = -.97721113E-4
MEAN_MOTION_DOT = -.2107E-3
MEAN_MOTION_DDOT = 0

CCSDS_OMM_VERS = 2.0
CREATION_DATE  = 
ORIGINATOR     = 

OBJECT_NAME    = STARLINK-36918
OBJECT_ID      = 2026-037AA
CENTER_NAME    = EARTH
REF_FRAME      = TEME
TIME_SYSTEM    = UTC
MEAN_ELEMENT_THEORY = SGP/SGP4

EPOCH          = 2026-03-12T22:00:01.999584
MEAN_MOTION    = 15.81989517
ECCENTRICITY   = .00015761
INCLINATION    = 42.9989
RA_OF_ASC_NODE = 178.5313
ARG_OF_PERICENTER = 286.5072
MEAN_ANOMALY   = 132.9823

EPHEMERIS_TYPE = 0
CLASSIFICATION_TYPE = U
NORAD_CAT_ID   = 67956
ELEMENT_SET_NO = 999
REV_AT_EPOCH   = 371
BSTAR          = .15932214E-3
MEAN_MOTION_DOT = .33101E-3
MEAN_MOTION_DDOT = 0

